1 30169U 99025UA  18212.96917602  .00000937  00000-0  26837-3 0  9996
2 30169  98.4507 329.5947 0335984 247.0615 201.8589 14.19292127593187
1 30170U 99025UB  18213.10853019  .00000097  00000-0  97613-4 0  9994
2 30170  98.9719 255.4392 0073349 160.6720 227.1872 13.97425257588267
1 30171U 99025UC  18213.50935181  .00000004  00000-0  27833-4 0  9995
2 30171  98.4199 261.0821 0188381 214.6360 144.2416 13.95006199587594
1 30172U 99025UD  18213.29465918  .00000172  00000-0  14284-3 0  9999
2 30172  99.0550 142.9410 0085701  76.1914  78.8907 13.99771077587968
1 30173U 99025UE  18213.56466866  .00001005  00000-0  67729-3 0  9991
2 30173  99.1662 252.2386 0097051 194.3227 322.5201 14.00657009588184
1 30174U 99025UF  18212.83711153  .00000383  00000-0  17566-3 0  9995
2 30174  98.8424 270.0364 0054745  83.3867 337.7620 14.26243190597364
1 30175U 99025UG  18213.46851940  .00000104  00000-0  12770-3 0  9998
2 30175  99.5711 202.9766 0150030 113.2412  37.1097 13.81743460581812
1 30177U 99025UJ  18212.61044476 +.00000155 +00000-0 +13457-3 0  9993
2 30177 098.6098 083.4100 0476355 330.7422 053.0130 13.55496957569508
1 30178U 99025UK  18212.72104619  .00000641  00000-0  80941-3 0  9994
2 30178 102.2653 130.2418 0306425  80.9181 312.0681 13.51096736567747
1 30180U 99025UM  18212.51924840  .00001771  00000-0  24123-3 0  9995
2 30180  99.0430 228.4185 0068086 223.3398 136.2443 14.78733197612504
1 30181U 99025UN  18212.93035323 +.00000519 +00000-0 +29005-3 0  9994
2 30181 099.0187 242.9505 0051806 124.4983 286.2526 14.14588955593634
1 30182U 99025UP  18213.50033729 -.00000109  00000-0 -45430-4 0  9995
2 30182  99.3617 219.6747 0076122 147.1036   4.8812 13.95425277587915
1 30183U 99025UQ  18212.52161461  .00000249  00000-0  17183-3 0  9998
2 30183  99.0796 237.4012 0026626 262.5030 262.3707 14.08271500592322
1 30190U 99025UX  18213.45257535  .00000570  00000-0  10209-3 0  9996
2 30190  99.0035 214.6200 0130598 156.3357 204.3925 14.66084072613296
1 30191U 99025UY  18213.12015156  .00000262  00000-0  65923-4 0  9994
2 30191  98.8033  83.5843 0140107 243.1075 271.7681 14.54929916610215
1 30193U 99025VA  18212.84146258  .00000249  00000-0  91399-4 0  9993
2 30193  98.8303 351.4275 0125528 193.3880 323.4731 14.37484861604437
1 30194U 99025VB  18212.13382208  .00000726  00000-0  28791-3 0  9998
2 30194 101.2573 326.3082 0057909  84.0690  39.5226 14.32457271598756
1 30196U 99025VD  18213.12853222 -.00000005  00000-0  16191-4 0  9992
2 30196  98.6932 302.6452 0086418 333.5104 142.8313 14.25033605600496
1 30197U 99025VE  18212.90409005  .00000117  00000-0  64552-4 0  9991
2 30197  99.0345   5.0575 0067241 107.4532  43.9968 14.27955817600347
1 30198U 99025VF  18212.82522088  .00000406  00000-0  16039-3 0  9997
2 30198  98.2340  47.9901 0145177 297.6794 129.1501 14.28468638599651
1 30199U 99025VG  18213.40678387  .00000299  00000-0  13496-3 0  9991
2 30199  98.6496 257.5476 0091511 315.9956 171.0150 14.27134075599672
1 30200U 99025VH  18212.73926303 +.00000053 +00000-0 +41599-4 0  9997
2 30200 098.8752 318.7791 0150263 234.4757 124.2328 14.20069577597735
1 30201U 99025VJ  18210.75014332 +.00000097 +00000-0 +70794-4 0  9995
2 30201 099.3679 140.4371 0031295 342.1270 017.8801 14.18409179596177
1 30202U 99025VK  18212.11936108  .00000441  00000-0  19934-3 0  9993
2 30202  98.8008 261.3645 0061399  50.7840 309.8768 14.26058237597708
1 30205U 99025VN  18213.54248855  .00000023  00000-0  53268-4 0  9994
2 30205  98.8240  68.0768 0121455 281.9269 106.4271 13.86200624583574
1 30206U 99025VP  18213.05112041  .00000114  00000-0  43546-4 0  9997
2 30206  98.3974 247.7499 0159894 275.3686  82.9280 14.41740588606360
1 30207U 99025VQ  18213.17650671  .00000011  00000-0  38561-4 0  9994
2 30207  98.4962 194.2821 0262401 222.9885 197.1119 13.77688981580213
1 30208U 99025VR  18211.09740292 +.00000112 +00000-0 +74599-4 0  9996
2 30208 098.7374 244.5764 0036607 126.7768 247.5165 14.18653402596233
1 30209U 99025VS  18212.90411448 +.00000261 +00000-0 +17552-3 0  9996
2 30209 098.8580 246.0387 0039781 298.5969 137.6488 14.08875406592859
1 30210U 99025VT  18212.86109480 +.00000052 +00000-0 +61322-4 0  9996
2 30210 099.1730 174.8572 0060899 016.1194 013.4093 14.03208650589758
1 30212U 99025VV  18212.80604835  .00000052  00000-0  71141-4 0  9996
2 30212  99.3423 329.8403 0097847 309.7907  49.4668 13.94710155587114
1 30213U 99025VW  18212.73817508  .00000794  00000-0  54918-3 0  9997
2 30213  99.2752 217.3330 0076380 120.6635 294.4295 14.00729250587938
1 30214U 99025VX  18212.35370578  .00000326  00000-0  18873-3 0  9998
2 30214  98.9218 258.0770 0027239 204.7415 289.0035 14.15666640593906
1 30216U 99025VZ  18213.49485204  .00000981  00000-0  18393-3 0  9993
2 30216  99.0871 214.2435 0083544 340.8913 170.2397 14.65330484610296
1 30217U 99025WA  18213.13950715  .00000023  00000-0  27089-4 0  9999
2 30217  98.5961 268.0393 0146317  22.6977 338.0584 14.21480626598354
1 30218U 99025WB  18209.50811666 +.00000629 +00000-0 +37560-3 0  9993
2 30218 099.1383 224.4243 0088023 305.5651 209.8973 14.09103448590259
1 30221U 99025WE  18212.70307269  .00000064  00000-0  31413-4 0  9997
2 30221  98.9536 114.3769 0156112  95.4323 266.4695 14.41166063606207
1 30222U 99025WF  18212.91919279 -.00000045 +00000-0 +45520-6 0  9997
2 30222 099.1683 232.9084 0036896 312.3255 165.6025 14.03314645590929
1 30224U 99025WH  18212.86155941  .00000034  00000-0  64160-4 0  9997
2 30224  99.3733 166.1860 0113990 323.6760  54.8585 13.87756326584140
1 30225U 99025WJ  18212.56083671  .00000020  00000-0  32724-4 0  9991
2 30225  98.9735 237.2467 0101788 178.9514 334.9234 14.13565333595210
1 30227U 99025WL  18212.92015104 +.00001249 +00000-0 +46818-3 0  9991
2 30227 099.0902 018.1553 0002986 148.7735 013.7037 14.33641066598375
1 30228U 99025WM  18213.50671637  .00002887  00000-0  33083-3 0  9995
2 30228  98.9783 201.4042 0042917 233.5243 126.2011 14.86262622611997
1 30229U 99025WN  18213.54436332  .00000445  00000-0  16925-3 0  9995
2 30229  99.0964  72.4645 0060830  59.1627 321.9061 14.35070779601787
1 30230U 99025WP  18212.99657638  .00001438  00000-0  38733-3 0  9993
2 30230  99.0117  28.1799 0116059 121.9795  31.2889 14.45750600600907
1 30231U 99025WQ  18212.87116122 +.00000191 +00000-0 +13156-3 0  9996
2 30231 099.1184 237.6936 0135710 014.9627 109.1560 14.06567484591513
1 30232U 99025WR  18212.75587216 +.00000285 +00000-0 +78288-4 0  9992
2 30232 098.5042 313.4524 0174473 249.7511 265.3795 14.46591067607314
1 30233U 99025WS  18213.13542252  .00001030  00000-0  28725-3 0  9996
2 30233  99.0373  96.0940 0055169 306.5109  53.1007 14.47823628603934
1 30234U 99025WT  18212.73976897  .00000103  00000-0  76419-4 0  9992
2 30234  98.8763 242.9339 0068806 192.8885 230.6145 14.13762188594231
1 30235U 99025WU  18213.03136003  .00000247  00000-0  16039-3 0  9994
2 30235  99.0304 242.4286 0159027 223.3509 165.9388 14.05534158590815
1 30237U 99025WW  18212.56159128 +.00000537 +00000-0 +28148-3 0  9992
2 30237 098.9684 249.9675 0021418 155.6004 359.2746 14.18461447593979
1 30238U 99025WX  11082.90817173 +.00000303 +00000-0 +13939-3 0  9993
2 30238 098.9310 129.1198 0083886 257.6413 099.7479 14.26790092217117
1 30239U 99025WY  18206.37494406 -.00002485 +00000-0 -88507-2 0  9997
2 30239 099.7399 184.9632 1461002 251.1396 092.5988 11.09699131243616
1 30241U 99025XA  18212.19533792  .00000193  00000-0  12937-3 0  9996
2 30241  99.0079 305.2625 0151358  41.0586 339.0334 14.06486968590647
1 30242U 99025XB  18213.54796667  .00000173  00000-0  11819-3 0  9995
2 30242  98.9734 243.4368 0012979 132.0690  31.1092 14.12473717594193
1 30243U 99025XC  18213.04176476  .00000016  00000-0  34129-4 0  9997
2 30243  98.9374 242.6876 0013832 170.4342 209.7741 14.09863289593510
1 30244U 99025XD  18212.83671289  .00000134  00000-0  99345-4 0  9998
2 30244  99.1654 344.1701 0008952 287.4066 229.3122 14.11709564593664
1 30245U 99025XE  18213.54748911  .00000271  00000-0  28762-3 0  9991
2 30245  98.9805 330.9733 0205546 197.0735 162.3429 13.73574506577307
1 30246U 99025XF  18212.69199786 -.00000033  00000-0  28740-5 0  9992
2 30246  98.6797 354.1834 0373312   9.5117 104.3180 13.35647251562145
1 30247U 99025XG  18213.04194604  .00000306  00000-0  11051-3 0  9994
2 30247  98.2209 239.5970 0337185 346.0260  40.3865 14.13052706590066
1 30248U 99025XH  18213.09239632  .00000954  00000-0  52079-3 0  9995
2 30248  99.1071 269.0145 0058290 285.3795  93.9922 14.13724112591540
1 30249U 99025XJ  18212.96923080  .00000853  00000-0  43938-3 0  9990
2 30249  98.9721 281.6925 0050971 256.6059 182.4213 14.17302944593647
1 30250U 99025XK  18213.13277399 -.00000192  00000-0 -10145-3 0  9999
2 30250  98.9588 266.6658 0066657 132.8514 253.7429 13.98917462588656
1 30251U 99025XL  18213.12480793  .00000135  00000-0  78394-4 0  9999
2 30251  98.8477 318.2637 0056745 163.1096 268.2069 14.23182790598270
1 30252U 99025XM  18212.95049950 +.00000205 +00000-0 +14920-3 0  9998
2 30252 098.9993 243.6145 0068815 236.9041 241.6902 14.06087618591223
1 30253U 99025XN  18213.36442579  .00000489  00000-0  54465-3 0  9991
2 30253  98.7222 166.0933 0240511 295.5630 220.6430 13.64178355572718
1 30256U 99025XR  18212.65848472 +.00008646 +00000-0 +49294-3 0  9994
2 30256 098.9992 284.6845 0042202 114.4543 047.1877 15.12338143614278
1 30257U 99025XS  18212.54567216  .00000134  00000-0  10166-3 0  9997
2 30257  98.8943 240.7481 0060527 132.7690  22.9602 14.08451606593355
1 30259U 99025XU  18213.24174407  .00000040  00000-0  18879-4 0  9999
2 30259  98.5749 320.0257 0273781  70.2983 322.0393 14.42204218606405
1 30261U 99025XW  18213.06448479  .00000553  00000-0  52937-4 0  9997
2 30261  98.7932 243.4062 0194492  69.8541 292.3477 14.85145709620775
1 30262U 99025XX  18212.96952538 +.00001662 +00000-0 +25008-3 0  9992
2 30262 099.0568 218.2060 0063450 283.9743 075.4413 14.74814023611494
1 30263U 99025XY  18213.36416875  .00000454  00000-0  34698-3 0  9990
2 30263  98.7511  48.3197 0162836 213.1669 271.5448 13.92237082585290
